ORBCOMM FM103           
1 40091U 14040F   25172.91403208  .00000323  00000+0  10584-3 0  9995
2 40091  47.0067 355.4808 0002134 290.6314  69.4343 14.58177075564793
ORBCOMM FM114           
1 41179U 15081A   25172.66141414  .00000273  00000+0  95023-4 0  9995
2 41179  47.0027 265.7200 0001903 341.3416  18.7400 14.58218217505123
ORBCOMM FM119           
1 41180U 15081B   25172.71814975  .00000243  00000+0  88639-4 0  9994
2 41180  46.9986 174.7631 0000528   0.2764 359.8122 14.58149265506388
ORBCOMM FM105           
1 41181U 15081C   25172.30061794  .00000057  00000+0  60651-4 0  9990
2 41181  46.9995 182.0814 0002352 315.0336  45.0354 14.45223725501345
ORBCOMM FM110           
1 41182U 15081D   25172.64607468  .00000468  00000+0  13774-3 0  9991
2 41182  47.0021 265.2532 0002077 226.2490 133.8223 14.57945957504993
ORBCOMM FM118           
1 41183U 15081E   25173.23378220  .00000487  00000+0  14047-3 0  9994
2 41183  47.0040 262.7973 0004292 187.7823 172.2997 14.58442181505266
ORBCOMM FM112           
1 41184U 15081F   25172.69392330  .00000483  00000+0  14021-3 0  9990
2 41184  46.9973 174.0222 0001580 329.5623  30.5170 14.58182633506323
ORBCOMM FM113           
1 41185U 15081G   25173.08170662  .00000492  00000+0  14204-3 0  9990
2 41185  46.9989 172.5139 0001191 338.5838  21.4998 14.58191092506435
